[{"OBJECT_NAME":"FLOCK 4G-10","OBJECT_ID":"2025-009BP","EPOCH":"2026-03-09T16:59:55.292640","MEAN_MOTION":15.27155944,"ECCENTRICITY":0.00034694,"INCLINATION":97.3967,"RA_OF_ASC_NODE":150.5883,"ARG_OF_PERICENTER":341.4844,"MEAN_ANOMALY":18.6269,"EPHEMERIS_TYPE":0,"CLASSIFICATION_TYPE":"U","NORAD_CAT_ID":62670,"ELEMENT_SET_NO":999,"REV_AT_EPOCH":12134,"BSTAR":0.00052624432,"MEAN_MOTION_DOT":0.00013952,"MEAN_MOTION_DDOT":0},{"OBJECT_NAME":"STARLINK-35818","OBJECT_ID":"2025-265AA","EPOCH":"2026-03-09T22:04:38.697312","MEAN_MOTION":15.27597899,"ECCENTRICITY":0.00011308,"INCLINATION":42.9979,"RA_OF_ASC_NODE":277.0618,"ARG_OF_PERICENTER":295.7589,"MEAN_ANOMALY":64.3146,"EPHEMERIS_TYPE":0,"CLASSIFICATION_TYPE":"U","NORAD_CAT_ID":66540,"ELEMENT_SET_NO":999,"REV_AT_EPOCH":1714,"BSTAR":0.0010790483,"MEAN_MOTION_DOT":0.00029566,"MEAN_MOTION_DDOT":0}]
